{
  "type": "FeatureCollection",
  "features": [
    {
      "type": "Feature",
      "properties": {
        "norad_id": 35915,
        "name": "IRIDIUM 33 DEB",
        "group": "iridium-33-debris",
        "lat": -29.69432337535711,
        "lon": 161.90476392286834,
        "alt_km": 627.3641133777746,
        "timestamp": "2025-12-19T14:48:36.633226+00:00",
        "meta_object_name": "IRIDIUM 33 DEB",
        "meta_object_id": "1997-051TY",
        "meta_epoch": "2025-12-15T17:25:35.441760",
        "meta_mean_motion": 14.80816607,
        "meta_eccentricity": 0.00112544,
        "meta_inclination": 86.3436,
        "meta_ra_of_asc_node": 341.593,
        "meta_arg_of_pericenter": 174.6839,
        "meta_mean_anomaly": 185.4504,
        "meta_ephemeris_type": 0,
        "meta_classification_type": "U",
        "meta_norad_cat_id": 35915,
        "meta_element_set_no": 999,
        "meta_rev_at_epoch": 8130,
        "meta_bstar": 0.0011378054,
        "meta_mean_motion_dot": 8.81e-05,
        "meta_mean_motion_ddot": 0,
        "tle_line1": "1 35915U 97051TY  25349.72610465  .00008810  00000+0  11378-2 0  9997",
        "tle_line2": "2 35915  86.3436 341.5930 0011254 174.6839 185.4504 14.80816607 81301"
      },
      "geometry": {
        "type": "Point",
        "coordinates": [
          161.90476392286834,
          -29.69432337535711
        ]
      }
    },
    {
      "type": "Feature",
      "properties": {
        "norad_id": 35918,
        "name": "IRIDIUM 33 DEB",
        "group": "iridium-33-debris",
        "lat": -6.282582215457891,
        "lon": 72.46740594924538,
        "alt_km": 742.9951332968622,
        "timestamp": "2025-12-19T14:48:36.633236+00:00",
        "meta_object_name": "IRIDIUM 33 DEB",
        "meta_object_id": "1997-051UB",
        "meta_epoch": "2025-12-16T12:39:39.180384",
        "meta_mean_motion": 14.5127814,
        "meta_eccentricity": 0.0027979,
        "meta_inclination": 86.4012,
        "meta_ra_of_asc_node": 74.1902,
        "meta_arg_of_pericenter": 157.398,
        "meta_mean_anomaly": 265.1439,
        "meta_ephemeris_type": 0,
        "meta_classification_type": "U",
        "meta_norad_cat_id": 35918,
        "meta_element_set_no": 999,
        "meta_rev_at_epoch": 85262,
        "meta_bstar": 0.00077323104,
        "meta_mean_motion_dot": 3.111e-05,
        "meta_mean_motion_ddot": 0,
        "tle_line1": "1 35918U 97051UB  25350.52753681  .00003111  00000+0  77323-3 0  9990",
        "tle_line2": "2 35918  86.4012  74.1902 0027979 157.3980 265.1439 14.51278140852625"
      },
      "geometry": {
        "type": "Point",
        "coordinates": [
          72.46740594924538,
          -6.282582215457891
        ]
      }
    },
    {
      "type": "Feature",
      "properties": {
        "norad_id": 35929,
        "name": "IRIDIUM 33 DEB",
        "group": "iridium-33-debris",
        "lat": -65.0277424069239,
        "lon": -58.54667767894894,
        "alt_km": 563.4693018322532,
        "timestamp": "2025-12-19T14:48:36.633247+00:00",
        "meta_object_name": "IRIDIUM 33 DEB",
        "meta_object_id": "1997-051UN",
        "meta_epoch": "2025-12-19T03:54:47.819808",
        "meta_mean_motion": 15.02824577,
        "meta_eccentricity": 0.00169983,
        "meta_inclination": 86.3333,
        "meta_ra_of_asc_node": 309.5832,
        "meta_arg_of_pericenter": 16.9141,
        "meta_mean_anomaly": 343.2656,
        "meta_ephemeris_type": 0,
        "meta_classification_type": "U",
        "meta_norad_cat_id": 35929,
        "meta_element_set_no": 999,
        "meta_rev_at_epoch": 87876,
        "meta_bstar": 0.0020745591,
        "meta_mean_motion_dot": 0.00027961,
        "meta_mean_motion_ddot": 0,
        "tle_line1": "1 35929U 97051UN  25353.16305347  .00027961  00000+0  20746-2 0  9992",
        "tle_line2": "2 35929  86.3333 309.5832 0016998  16.9141 343.2656 15.02824577878767"
      },
      "geometry": {
        "type": "Point",
        "coordinates": [
          -58.54667767894894,
          -65.0277424069239
        ]
      }
    },
    {
      "type": "Feature",
      "properties": {
        "norad_id": 36011,
        "name": "IRIDIUM 33 DEB",
        "group": "iridium-33-debris",
        "lat": 21.23539071048176,
        "lon": -148.95324216283214,
        "alt_km": 743.6292469169348,
        "timestamp": "2025-12-19T14:48:36.633262+00:00",
        "meta_object_name": "IRIDIUM 33 DEB",
        "meta_object_id": "1997-051US",
        "meta_epoch": "2025-12-11T21:42:29.079072",
        "meta_mean_motion": 14.41326157,
        "meta_eccentricity": 0.0017563,
        "meta_inclination": 86.3411,
        "meta_ra_of_asc_node": 35.7829,
        "meta_arg_of_pericenter": 218.6873,
        "meta_mean_anomaly": 266.0791,
        "meta_ephemeris_type": 0,
        "meta_classification_type": "U",
        "meta_norad_cat_id": 36011,
        "meta_element_set_no": 999,
        "meta_rev_at_epoch": 64528,
        "meta_bstar": 0.00076231,
        "meta_mean_motion_dot": 2.489e-05,
        "meta_mean_motion_ddot": 0,
        "tle_line1": "1 36011U 97051US  25345.90450323  .00002489  00000+0  76231-3 0  9992",
        "tle_line2": "2 36011  86.3411  35.7829 0017563 218.6873 266.0791 14.41326157645287"
      },
      "geometry": {
        "type": "Point",
        "coordinates": [
          -148.95324216283214,
          21.23539071048176
        ]
      }
    },
    {
      "type": "Feature",
      "properties": {
        "norad_id": 36012,
        "name": "IRIDIUM 33 DEB",
        "group": "iridium-33-debris",
        "lat": -74.29818789892252,
        "lon": 137.5507019131292,
        "alt_km": 687.2508956859238,
        "timestamp": "2025-12-19T14:48:36.633274+00:00",
        "meta_object_name": "IRIDIUM 33 DEB",
        "meta_object_id": "1997-051UT",
        "meta_epoch": "2025-12-18T07:08:48.483168",
        "meta_mean_motion": 14.19165208,
        "meta_eccentricity": 0.0211344,
        "meta_inclination": 86.4409,
        "meta_ra_of_asc_node": 305.2919,
        "meta_arg_of_pericenter": 245.33,
        "meta_mean_anomaly": 112.5751,
        "meta_ephemeris_type": 0,
        "meta_classification_type": "U",
        "meta_norad_cat_id": 36012,
        "meta_element_set_no": 999,
        "meta_rev_at_epoch": 65563,
        "meta_bstar": 0.0043850325,
        "meta_mean_motion_dot": 0.00011493,
        "meta_mean_motion_ddot": 0,
        "tle_line1": "1 36012U 97051UT  25352.29778337  .00011493  00000+0  43850-2 0  9996",
        "tle_line2": "2 36012  86.4409 305.2919 0211344 245.3300 112.5751 14.19165208655630"
      },
      "geometry": {
        "type": "Point",
        "coordinates": [
          137.5507019131292,
          -74.29818789892252
        ]
      }
    },
    {
      "type": "Feature",
      "properties": {
        "norad_id": 36028,
        "name": "IRIDIUM 33 DEB",
        "group": "iridium-33-debris",
        "lat": 63.97951107777578,
        "lon": -48.96558303801837,
        "alt_km": 562.0892108662765,
        "timestamp": "2025-12-19T14:48:36.633284+00:00",
        "meta_object_name": "IRIDIUM 33 DEB",
        "meta_object_id": "1997-051VK",
        "meta_epoch": "2025-12-19T03:17:05.091936",
        "meta_mean_motion": 14.95591145,
        "meta_eccentricity": 0.00208389,
        "meta_inclination": 86.3218,
        "meta_ra_of_asc_node": 303.6882,
        "meta_arg_of_pericenter": 33.6007,
        "meta_mean_anomaly": 326.6539,
        "meta_ephemeris_type": 0,
        "meta_classification_type": "U",
        "meta_norad_cat_id": 36028,
        "meta_element_set_no": 999,
        "meta_rev_at_epoch": 87220,
        "meta_bstar": 0.001783846,
        "meta_mean_motion_dot": 0.00019939,
        "meta_mean_motion_ddot": 0,
        "tle_line1": "1 36028U 97051VK  25353.13686449  .00019939  00000+0  17838-2 0  9999",
        "tle_line2": "2 36028  86.3218 303.6882 0020838  33.6007 326.6539 14.95591145872206"
      },
      "geometry": {
        "type": "Point",
        "coordinates": [
          -48.96558303801837,
          63.97951107777578
        ]
      }
    },
    {
      "type": "Feature",
      "properties": {
        "norad_id": 36080,
        "name": "IRIDIUM 33 DEB",
        "group": "iridium-33-debris",
        "lat": 24.996653612738267,
        "lon": -176.7290745980455,
        "alt_km": 723.3796335749466,
        "timestamp": "2025-12-19T14:48:36.633294+00:00",
        "meta_object_name": "IRIDIUM 33 DEB",
        "meta_object_id": "1997-051VM",
        "meta_epoch": "2025-12-19T07:27:26.573472",
        "meta_mean_motion": 14.4663152,
        "meta_eccentricity": 0.00188928,
        "meta_inclination": 86.3193,
        "meta_ra_of_asc_node": 5.1242,
        "meta_arg_of_pericenter": 135.9522,
        "meta_mean_anomaly": 224.319,
        "meta_ephemeris_type": 0,
        "meta_classification_type": "U",
        "meta_norad_cat_id": 36080,
        "meta_element_set_no": 999,
        "meta_rev_at_epoch": 47509,
        "meta_bstar": 0.0004245847,
        "meta_mean_motion_dot": 1.555e-05,
        "meta_mean_motion_ddot": 0,
        "tle_line1": "1 36080U 97051VM  25353.31072423  .00001555  00000+0  42458-3 0  9990",
        "tle_line2": "2 36080  86.3193   5.1242 0018892 135.9522 224.3190 14.46631520475096"
      },
      "geometry": {
        "type": "Point",
        "coordinates": [
          -176.7290745980455,
          24.996653612738267
        ]
      }
    }
  ]
}